HTV-X1                  
1 66174U 25241A   26090.56147131  .00001549  00000+0  60315-4 0  9990
2 66174  51.6378 327.6549 0007219 257.4988 102.5186 15.32487101 24296
SZ-21 MODULE            
1 66515U 25246C   26090.32756337  .00047143  00000+0  37674-3 0  9993
2 66515  41.4738  69.9930 0002265 217.1481 142.9205 15.70267217 21472
SHENZHOU-22             
1 66645U 25272A   26090.40103076  .00027868  00000+0  31584-3 0  9997
2 66645  41.4667  75.9454 0003702  78.2668 281.8587 15.61753153281153
SOYUZ-MS 28             
1 66664U 25275A   26090.52027159  .00011565  00000+0  22010-3 0  9992
2 66664  51.6339 324.4353 0006210 255.4271 104.6029 15.48680190559313
DUPLEX                  
1 66906U 98067XS  26090.34544201  .00030598  00000+0  41041-3 0  9994
2 66906  51.6297 321.0191 0003031 212.0904 147.9904 15.57674080 18502
ISS OBJECT XT           
1 66907U 98067XT  26089.99206508  .00266250  00000+0  15250-2 0  9997
2 66907  51.6233 316.3688 0006496 218.8764 141.1770 15.77474142 18536
ISS OBJECT XU           
1 66908U 98067XU  26089.98791627  .00279310  00000+0  15782-2 0  9999
2 66908  51.6237 316.3364 0006723 218.1981 141.8543 15.77741414 18533
SILVERSAT               
1 66909U 98067XV  26089.99737683  .00407567  00000+0  17359-2 0  9992
2 66909  51.6200 314.8852 0007665 225.3563 134.6816 15.83552073 18554
ISS OBJECT XW           
1 66910U 98067XW  26090.00129125  .00227945  00000+0  14085-2 0  9997
2 66910  51.6221 316.4232 0006710 215.2367 144.8190 15.75865069 18538
ISS OBJECT XX           
1 66911U 98067XX  26089.99227632  .00643331  17468-3  19754-2 0  9995
2 66911  51.6173 313.3117 0009698 230.4896 129.5254 15.91183694 18566
ISS OBJECT XY           
1 66912U 98067XY  26090.34422856  .00121659  00000+0  10538-2 0  9997
2 66912  51.6263 317.2474 0004562 215.9554 144.1137 15.68251544 18545
KNACKSAT-2              
1 67683U 98067XZ  26089.90238054  .00048681  00000+0  75035-3 0  9995
2 67683  51.6321 326.3110 0010183 263.1970  96.7862 15.53622032  8080
