CCSDS_OMM_VERS = 2.0
CREATION_DATE  = 
ORIGINATOR     = 

OBJECT_NAME    = HTV-X1
OBJECT_ID      = 2025-241A
CENTER_NAME    = EARTH
REF_FRAME      = TEME
TIME_SYSTEM    = UTC
MEAN_ELEMENT_THEORY = SGP/SGP4

EPOCH          = 2026-03-31T13:28:31.121184
MEAN_MOTION    = 15.32487101
ECCENTRICITY   = .00072191
INCLINATION    = 51.6378
RA_OF_ASC_NODE = 327.6549
ARG_OF_PERICENTER = 257.4988
MEAN_ANOMALY   = 102.5186

EPHEMERIS_TYPE = 0
CLASSIFICATION_TYPE = U
NORAD_CAT_ID   = 66174
ELEMENT_SET_NO = 999
REV_AT_EPOCH   = 2429
BSTAR          = .60314749E-4
MEAN_MOTION_DOT = .1549E-4
MEAN_MOTION_DDOT = 0

CCSDS_OMM_VERS = 2.0
CREATION_DATE  = 
ORIGINATOR     = 

OBJECT_NAME    = SZ-21 MODULE
OBJECT_ID      = 2025-246C
CENTER_NAME    = EARTH
REF_FRAME      = TEME
TIME_SYSTEM    = UTC
MEAN_ELEMENT_THEORY = SGP/SGP4

EPOCH          = 2026-03-31T07:51:41.475168
MEAN_MOTION    = 15.70267217
ECCENTRICITY   = .00022653
INCLINATION    = 41.4738
RA_OF_ASC_NODE = 69.9930
ARG_OF_PERICENTER = 217.1481
MEAN_ANOMALY   = 142.9205

EPHEMERIS_TYPE = 0
CLASSIFICATION_TYPE = U
NORAD_CAT_ID   = 66515
ELEMENT_SET_NO = 999
REV_AT_EPOCH   = 2147
BSTAR          = .37673665E-3
MEAN_MOTION_DOT = .47143E-3
MEAN_MOTION_DDOT = 0

CCSDS_OMM_VERS = 2.0
CREATION_DATE  = 
ORIGINATOR     = 

OBJECT_NAME    = SHENZHOU-22
OBJECT_ID      = 2025-272A
CENTER_NAME    = EARTH
REF_FRAME      = TEME
TIME_SYSTEM    = UTC
MEAN_ELEMENT_THEORY = SGP/SGP4

EPOCH          = 2026-03-31T09:37:29.057664
MEAN_MOTION    = 15.61753153
ECCENTRICITY   = .00037027
INCLINATION    = 41.4667
RA_OF_ASC_NODE = 75.9454
ARG_OF_PERICENTER = 78.2668
MEAN_ANOMALY   = 281.8587

EPHEMERIS_TYPE = 0
CLASSIFICATION_TYPE = U
NORAD_CAT_ID   = 66645
ELEMENT_SET_NO = 999
REV_AT_EPOCH   = 28115
BSTAR          = .31583773E-3
MEAN_MOTION_DOT = .27868E-3
MEAN_MOTION_DDOT = 0

CCSDS_OMM_VERS = 2.0
CREATION_DATE  = 
ORIGINATOR     = 

OBJECT_NAME    = SOYUZ-MS 28
OBJECT_ID      = 2025-275A
CENTER_NAME    = EARTH
REF_FRAME      = TEME
TIME_SYSTEM    = UTC
MEAN_ELEMENT_THEORY = SGP/SGP4

EPOCH          = 2026-03-31T12:29:11.465376
MEAN_MOTION    = 15.48680190
ECCENTRICITY   = .00062102
INCLINATION    = 51.6339
RA_OF_ASC_NODE = 324.4353
ARG_OF_PERICENTER = 255.4271
MEAN_ANOMALY   = 104.6029

EPHEMERIS_TYPE = 0
CLASSIFICATION_TYPE = U
NORAD_CAT_ID   = 66664
ELEMENT_SET_NO = 999
REV_AT_EPOCH   = 55931
BSTAR          = .22009587E-3
MEAN_MOTION_DOT = .11565E-3
MEAN_MOTION_DDOT = 0

CCSDS_OMM_VERS = 2.0
CREATION_DATE  = 
ORIGINATOR     = 

OBJECT_NAME    = DUPLEX
OBJECT_ID      = 1998-067XS
CENTER_NAME    = EARTH
REF_FRAME      = TEME
TIME_SYSTEM    = UTC
MEAN_ELEMENT_THEORY = SGP/SGP4

EPOCH          = 2026-03-31T08:17:26.189664
MEAN_MOTION    = 15.57674080
ECCENTRICITY   = .00030317
INCLINATION    = 51.6297
RA_OF_ASC_NODE = 321.0191
ARG_OF_PERICENTER = 212.0904
MEAN_ANOMALY   = 147.9904

EPHEMERIS_TYPE = 0
CLASSIFICATION_TYPE = U
NORAD_CAT_ID   = 66906
ELEMENT_SET_NO = 999
REV_AT_EPOCH   = 1850
BSTAR          = .41041416E-3
MEAN_MOTION_DOT = .30598E-3
MEAN_MOTION_DDOT = 0

CCSDS_OMM_VERS = 2.0
CREATION_DATE  = 
ORIGINATOR     = 

OBJECT_NAME    = ISS OBJECT XT
OBJECT_ID      = 1998-067XT
CENTER_NAME    = EARTH
REF_FRAME      = TEME
TIME_SYSTEM    = UTC
MEAN_ELEMENT_THEORY = SGP/SGP4

EPOCH          = 2026-03-30T23:48:34.422912
MEAN_MOTION    = 15.77474142
ECCENTRICITY   = .0006496
INCLINATION    = 51.6233
RA_OF_ASC_NODE = 316.3688
ARG_OF_PERICENTER = 218.8764
MEAN_ANOMALY   = 141.1770

EPHEMERIS_TYPE = 0
CLASSIFICATION_TYPE = U
NORAD_CAT_ID   = 66907
ELEMENT_SET_NO = 999
REV_AT_EPOCH   = 1853
BSTAR          = .15250225E-2
MEAN_MOTION_DOT = .26625E-2
MEAN_MOTION_DDOT = 0

CCSDS_OMM_VERS = 2.0
CREATION_DATE  = 
ORIGINATOR     = 

OBJECT_NAME    = ISS OBJECT XU
OBJECT_ID      = 1998-067XU
CENTER_NAME    = EARTH
REF_FRAME      = TEME
TIME_SYSTEM    = UTC
MEAN_ELEMENT_THEORY = SGP/SGP4

EPOCH          = 2026-03-30T23:42:35.965728
MEAN_MOTION    = 15.77741414
ECCENTRICITY   = .00067239
INCLINATION    = 51.6237
RA_OF_ASC_NODE = 316.3364
ARG_OF_PERICENTER = 218.1981
MEAN_ANOMALY   = 141.8543

EPHEMERIS_TYPE = 0
CLASSIFICATION_TYPE = U
NORAD_CAT_ID   = 66908
ELEMENT_SET_NO = 999
REV_AT_EPOCH   = 1853
BSTAR          = .15781782E-2
MEAN_MOTION_DOT = .27931E-2
MEAN_MOTION_DDOT = 0

CCSDS_OMM_VERS = 2.0
CREATION_DATE  = 
ORIGINATOR     = 

OBJECT_NAME    = SILVERSAT
OBJECT_ID      = 1998-067XV
CENTER_NAME    = EARTH
REF_FRAME      = TEME
TIME_SYSTEM    = UTC
MEAN_ELEMENT_THEORY = SGP/SGP4

EPOCH          = 2026-03-30T23:56:13.358112
MEAN_MOTION    = 15.83552073
ECCENTRICITY   = .00076656
INCLINATION    = 51.6200
RA_OF_ASC_NODE = 314.8852
ARG_OF_PERICENTER = 225.3563
MEAN_ANOMALY   = 134.6816

EPHEMERIS_TYPE = 0
CLASSIFICATION_TYPE = U
NORAD_CAT_ID   = 66909
ELEMENT_SET_NO = 999
REV_AT_EPOCH   = 1855
BSTAR          = .17359302E-2
MEAN_MOTION_DOT = .407567E-2
MEAN_MOTION_DDOT = 0

CCSDS_OMM_VERS = 2.0
CREATION_DATE  = 
ORIGINATOR     = 

OBJECT_NAME    = ISS OBJECT XW
OBJECT_ID      = 1998-067XW
CENTER_NAME    = EARTH
REF_FRAME      = TEME
TIME_SYSTEM    = UTC
MEAN_ELEMENT_THEORY = SGP/SGP4

EPOCH          = 2026-03-31T00:01:51.564000
MEAN_MOTION    = 15.75865069
ECCENTRICITY   = .00067105
INCLINATION    = 51.6221
RA_OF_ASC_NODE = 316.4232
ARG_OF_PERICENTER = 215.2367
MEAN_ANOMALY   = 144.8190

EPHEMERIS_TYPE = 0
CLASSIFICATION_TYPE = U
NORAD_CAT_ID   = 66910
ELEMENT_SET_NO = 999
REV_AT_EPOCH   = 1853
BSTAR          = .14085166E-2
MEAN_MOTION_DOT = .227945E-2
MEAN_MOTION_DDOT = 0

CCSDS_OMM_VERS = 2.0
CREATION_DATE  = 
ORIGINATOR     = 

OBJECT_NAME    = ISS OBJECT XX
OBJECT_ID      = 1998-067XX
CENTER_NAME    = EARTH
REF_FRAME      = TEME
TIME_SYSTEM    = UTC
MEAN_ELEMENT_THEORY = SGP/SGP4

EPOCH          = 2026-03-30T23:48:52.674048
MEAN_MOTION    = 15.91183694
ECCENTRICITY   = .00096988
INCLINATION    = 51.6173
RA_OF_ASC_NODE = 313.3117
ARG_OF_PERICENTER = 230.4896
MEAN_ANOMALY   = 129.5254

EPHEMERIS_TYPE = 0
CLASSIFICATION_TYPE = U
NORAD_CAT_ID   = 66911
ELEMENT_SET_NO = 999
REV_AT_EPOCH   = 1856
BSTAR          = .1975357E-2
MEAN_MOTION_DOT = .643331E-2
MEAN_MOTION_DDOT = .1746781E-3

CCSDS_OMM_VERS = 2.0
CREATION_DATE  = 
ORIGINATOR     = 

OBJECT_NAME    = ISS OBJECT XY
OBJECT_ID      = 1998-067XY
CENTER_NAME    = EARTH
REF_FRAME      = TEME
TIME_SYSTEM    = UTC
MEAN_ELEMENT_THEORY = SGP/SGP4

EPOCH          = 2026-03-31T08:15:41.347584
MEAN_MOTION    = 15.68251544
ECCENTRICITY   = .00045621
INCLINATION    = 51.6263
RA_OF_ASC_NODE = 317.2474
ARG_OF_PERICENTER = 215.9554
MEAN_ANOMALY   = 144.1137

EPHEMERIS_TYPE = 0
CLASSIFICATION_TYPE = U
NORAD_CAT_ID   = 66912
ELEMENT_SET_NO = 999
REV_AT_EPOCH   = 1854
BSTAR          = .10537695E-2
MEAN_MOTION_DOT = .121659E-2
MEAN_MOTION_DDOT = 0

CCSDS_OMM_VERS = 2.0
CREATION_DATE  = 
ORIGINATOR     = 

OBJECT_NAME    = KNACKSAT-2
OBJECT_ID      = 1998-067XZ
CENTER_NAME    = EARTH
REF_FRAME      = TEME
TIME_SYSTEM    = UTC
MEAN_ELEMENT_THEORY = SGP/SGP4

EPOCH          = 2026-03-30T21:39:25.678656
MEAN_MOTION    = 15.53622032
ECCENTRICITY   = .0010183
INCLINATION    = 51.6321
RA_OF_ASC_NODE = 326.3110
ARG_OF_PERICENTER = 263.1970
MEAN_ANOMALY   = 96.7862

EPHEMERIS_TYPE = 0
CLASSIFICATION_TYPE = U
NORAD_CAT_ID   = 67683
ELEMENT_SET_NO = 999
REV_AT_EPOCH   = 808
BSTAR          = .75035E-3
MEAN_MOTION_DOT = .48681E-3
MEAN_MOTION_DDOT = 0

